     2.10           NAVIGATION DATA                         RINEX VERSION / TYPE
WaNJOIG 1.3c        SAPOS               2020-01-14 14:20:03 PGM / RUN BY / DATE 
    18                                                      LEAP SECONDS
                                                            END OF HEADER       
21 19 11 21  3 59 44.0 -.828569754958E-04  .591171556152E-11  .000000000000E+00
     .850000000000E+02  .317812500000E+02  .478734226916E-08 -.271689480340E+01
     .164471566677E-05  .245900778100E-01  .413879752159E-05  .515361590576E+04
     .359984000000E+06  .217929482460E-06  .102600831999E+00  .162050127983E-06
     .951031734975E+00  .289500000000E+03 -.139618946295E+01 -.803354891527E-08
     .301441127661E-09  .100000000000E+01  .208000000000E+04  .000000000000E+00
     .200000000000E+01  .000000000000E+00 -.102445483208E-07  .850000000000E+02
     .352818000000E+06  .000000000000E+00  .000000000000E+00  .000000000000E+00
05 19 11 21  4  0  0.0 -.371132045984E-05 -.454747350886E-12  .000000000000E+00
     .840000000000E+02 -.780312500000E+02  .489556106263E-08  .198588644494E+01
    -.416487455368E-05  .583885365631E-02  .705011188984E-05  .515354917908E+04
     .360000000000E+06 -.987201929092E-07  .118375004833E+01 -.484287738800E-07
     .950733972629E+00  .241312500000E+03  .802110568793E+00 -.831427489435E-08
    -.225366530278E-09  .100000000000E+01  .208000000000E+04  .000000000000E+00
     .200000000000E+01  .000000000000E+00 -.111758708954E-07  .840000000000E+02
     .352818000000E+06  .000000000000E+00  .000000000000E+00  .000000000000E+00
26 19 11 21  3 59 44.0  .887988135219E-04  .829913915368E-11  .000000000000E+00
     .340000000000E+02 -.139375000000E+02  .507592571839E-08 -.308069140321E+01
    -.635161995888E-06  .421874318272E-02  .688061118126E-05  .515369955826E+04
     .359984000000E+06 -.353902578354E-07 -.195867341253E+01 -.447034835815E-07
     .949103145201E+00  .242031250000E+03  .127480934321E+00 -.832784688825E-08
    -.361443627006E-09  .100000000000E+01  .208000000000E+04  .000000000000E+00
     .200000000000E+01  .000000000000E+00  .745058059692E-08  .340000000000E+02
     .352998000000E+06  .000000000000E+00  .000000000000E+00  .000000000000E+00
08 19 11 21  3 59 44.0 -.140722841024E-04 -.125055521494E-11  .000000000000E+00
     .690000000000E+02  .195312500000E+02  .423767651624E-08  .154146510750E+01
     .124052166939E-05  .471295253374E-02  .985898077488E-05  .515359211922E+04
     .359984000000E+06  .968575477600E-07 -.896148653080E+00  .204890966415E-07
     .970193351967E+00  .190843750000E+03 -.236428469635E+00 -.797247494273E-08
    -.105361531588E-09  .100000000000E+01  .208000000000E+04  .000000000000E+00
     .200000000000E+01  .000000000000E+00  .512227416039E-08  .690000000000E+02
     .353052000000E+06  .000000000000E+00  .000000000000E+00  .000000000000E+00
07 19 11 21  4  0  0.0 -.153260771185E-03 -.818545231596E-11  .000000000000E+00
     .160000000000E+02  .587812500000E+02  .487270296764E-08 -.154555383772E+01
     .299140810966E-05  .131811739411E-01  .589340925217E-05  .515371788788E+04
     .360000000000E+06  .216066837311E-06 -.296349652532E+01 -.558793544769E-07
     .954655817544E+00  .257468750000E+03 -.242188322776E+01 -.820319883902E-08
     .350014579512E-09  .100000000000E+01  .208000000000E+04  .000000000000E+00
     .200000000000E+01  .000000000000E+00 -.111758708954E-07  .160000000000E+02
     .353076000000E+06  .000000000000E+00  .000000000000E+00  .000000000000E+00
15 19 11 21  4  0  0.0 -.271186232567E-03  .272848410532E-11  .000000000000E+00
     .840000000000E+02 -.606250000000E+01  .510414117940E-08  .432797650159E+00
    -.186264514923E-06  .120341381989E-01  .114850699902E-04  .515360188103E+04
     .360000000000E+06 -.182539224625E-06  .216035973997E+01  .232830643654E-06
     .927922155591E+00  .141781250000E+03  .840140146844E+00 -.839892127736E-08
     .621454457501E-10  .100000000000E+01  .208000000000E+04  .000000000000E+00
     .200000000000E+01  .000000000000E+00 -.111758708954E-07  .840000000000E+02
     .353928000000E+06  .000000000000E+00  .000000000000E+00  .000000000000E+00
13 19 11 21  4  0  0.0 -.315508805215E-04  .238742359215E-11  .000000000000E+00
     .340000000000E+02  .209687500000E+02  .422553315327E-08  .446489899216E+00
     .998377799988E-06  .407553825062E-02  .112280249596E-04  .515367016792E+04
     .360000000000E+06 -.130385160446E-06  .238489432136E+01  .111758708954E-07
     .967874356172E+00  .167375000000E+03  .118672458064E+01 -.786782772661E-08
     .186436337250E-09  .100000000000E+01  .208000000000E+04  .000000000000E+00
     .200000000000E+01  .000000000000E+00 -.111758708954E-07  .340000000000E+02
     .354768000000E+06  .000000000000E+00  .000000000000E+00  .000000000000E+00
11 19 11 21  4  0  0.0 -.442054122686E-03  .111413100967E-10  .000000000000E+00
     .850000000000E+02  .521875000000E+02  .564987819725E-08 -.168208475925E+01
     .288896262646E-05  .163712083595E-01  .730901956558E-05  .515374822426E+04
     .360000000000E+06 -.320374965668E-06 -.290471706352E+00  .344589352608E-06
     .911481346788E+00  .213656250000E+03  .197128339918E+01 -.875500753835E-08
     .180721813503E-09  .100000000000E+01  .208000000000E+04  .000000000000E+00
     .200000000000E+01  .000000000000E+00 -.121071934700E-07  .850000000000E+02
     .359772000000E+06  .000000000000E+00  .000000000000E+00  .000000000000E+00
18 19 11 21  4  0  0.0  .101550016552E-03  .250111042988E-11  .000000000000E+00
     .570000000000E+02  .301250000000E+02  .489984695544E-08 -.115320699744E+01
     .174529850483E-05  .156273342436E-01  .538490712643E-05  .515366288948E+04
     .360000000000E+06 -.197440385818E-06  .112707515658E+00  .376254320145E-06
     .956666242955E+00  .274062500000E+03  .144599206881E+01 -.856892835883E-08
     .186079179516E-09  .100000000000E+01  .208000000000E+04  .000000000000E+00
     .200000000000E+01  .630000000000E+02 -.558793544769E-08  .570000000000E+02
     .357936000000E+06  .000000000000E+00  .000000000000E+00  .000000000000E+00
30 19 11 21  4  0  0.0 -.884868204594E-04 -.841282599140E-11  .000000000000E+00
     .690000000000E+02  .580937500000E+02  .526271921338E-08 -.158125847029E+01
     .278465449810E-05  .415422348306E-02  .598281621933E-05  .515372513199E+04
     .360000000000E+06  .726431608200E-07 -.293798813040E+01 -.167638063431E-07
     .940033531484E+00  .252218750000E+03 -.290943965567E+01 -.850749722855E-08
     .262510934634E-09  .100000000000E+01  .208000000000E+04  .000000000000E+00
     .200000000000E+01  .000000000000E+00  .372529029846E-08  .690000000000E+02
     .357468000000E+06  .000000000000E+00  .000000000000E+00  .000000000000E+00
10 19 11 21  6  0  0.0 -.142737291753E-03 -.146656020661E-10  .000000000000E+00
     .650000000000E+02 -.888750000000E+02  .447268630534E-08 -.179886212325E+01
    -.462867319584E-05  .506655138452E-02  .743940472603E-05  .515366414261E+04
     .367200000000E+06 -.167638063431E-07  .120985068661E+01 -.558793544769E-07
     .963822920122E+00  .237750000000E+03 -.273766630908E+01 -.807605068564E-08
    -.235009789101E-09  .100000000000E+01  .208000000000E+04  .000000000000E+00
     .200000000000E+01  .000000000000E+00  .186264514923E-08  .650000000000E+02
     .360018000000E+06  .000000000000E+00  .000000000000E+00  .000000000000E+00
27 19 11 21  6  0  0.0 -.126468949020E-03 -.118234311230E-10  .000000000000E+00
     .380000000000E+02  .381250000000E+02  .402552482212E-08  .238175592320E+01
     .196136534214E-05  .736839184538E-02  .109523534775E-04  .515366121101E+04
     .367200000000E+06 -.156462192535E-06 -.883435767697E+00 -.689178705215E-07
     .978553802979E+00  .175937500000E+03  .500309189509E+00 -.777282376931E-08
     .728601777760E-10  .100000000000E+01  .208000000000E+04  .000000000000E+00
     .200000000000E+01  .000000000000E+00  .186264514923E-08  .380000000000E+02
     .360018000000E+06  .000000000000E+00  .000000000000E+00  .000000000000E+00
26 19 11 21  6  0  0.0  .888588838279E-04  .829913915368E-11  .000000000000E+00
     .350000000000E+02 -.140000000000E+02  .502485216240E-08 -.202818455608E+01
    -.968575477600E-06  .421881896909E-02  .694580376148E-05  .515369944382E+04
     .367200000000E+06  .298023223877E-07 -.195873392614E+01 -.894069671631E-07
     .949100495857E+00  .241187500000E+03  .127476991757E+00 -.837606318237E-08
    -.318227541169E-09  .100000000000E+01  .208000000000E+04  .000000000000E+00
     .200000000000E+01  .000000000000E+00  .745058059692E-08  .350000000000E+02
     .360018000000E+06  .000000000000E+00  .000000000000E+00  .000000000000E+00
15 19 11 21  6  0  0.0 -.271167140454E-03  .272848410532E-11  .000000000000E+00
     .880000000000E+02 -.128437500000E+02  .513414242907E-08  .148298006967E+01
    -.638887286186E-06  .120340145659E-01  .116527080536E-04  .515360263634E+04
     .367200000000E+06 -.221654772758E-06  .216029984957E+01 -.931322574615E-08
     .927921905432E+00  .142312500000E+03  .840186866595E+00 -.837820612877E-08
    -.625026034843E-10  .100000000000E+01  .208000000000E+04  .000000000000E+00
     .280000000000E+01  .000000000000E+00 -.111758708954E-07  .880000000000E+02
     .360018000000E+06  .000000000000E+00  .000000000000E+00  .000000000000E+00
30 19 11 21  6  0  0.0 -.885478220880E-04 -.841282599140E-11  .000000000000E+00
     .850000000000E+02  .606875000000E+02  .521343144606E-08 -.531169891118E+00
     .322237610817E-05  .415396830067E-02  .599958002567E-05  .515372443199E+04
     .367200000000E+06  .428408384323E-07 -.293804933012E+01  .353902578354E-07
     .940035344040E+00  .251093750000E+03 -.290937358883E+01 -.853428405862E-08
     .258939357292E-09  .100000000000E+01  .208000000000E+04  .000000000000E+00
     .280000000000E+01  .000000000000E+00  .372529029846E-08  .850000000000E+02
     .360018000000E+06  .000000000000E+00  .000000000000E+00  .000000000000E+00
